CCSDS_OMM_VERS = 2.0
CREATION_DATE  = 
ORIGINATOR     = 

OBJECT_NAME    = STARLINK-35610
OBJECT_ID      = 2025-259G
CENTER_NAME    = EARTH
REF_FRAME      = TEME
TIME_SYSTEM    = UTC
MEAN_ELEMENT_THEORY = SGP/SGP4

EPOCH          = 2025-12-09T04:00:01.998720
MEAN_MOTION    = 15.40635007
ECCENTRICITY   = .0001714
INCLINATION    = 43.0008
RA_OF_ASC_NODE = 68.5176
ARG_OF_PERICENTER = 272.5192
MEAN_ANOMALY   = 64.3680

EPHEMERIS_TYPE = 0
CLASSIFICATION_TYPE = U
NORAD_CAT_ID   = 66428
ELEMENT_SET_NO = 999
REV_AT_EPOCH   = 570
BSTAR          = .22362E-2
MEAN_MOTION_DOT = .94064E-3
MEAN_MOTION_DDOT = 0

CCSDS_OMM_VERS = 2.0
CREATION_DATE  = 
ORIGINATOR     = 

OBJECT_NAME    = STARLINK-35533
OBJECT_ID      = 2025-259H
CENTER_NAME    = EARTH
REF_FRAME      = TEME
TIME_SYSTEM    = UTC
MEAN_ELEMENT_THEORY = SGP/SGP4

EPOCH          = 2025-12-09T04:00:01.998720
MEAN_MOTION    = 15.40640570
ECCENTRICITY   = .0001408
INCLINATION    = 43.0007
RA_OF_ASC_NODE = 68.4853
ARG_OF_PERICENTER = 261.9345
MEAN_ANOMALY   = 87.3688

EPHEMERIS_TYPE = 0
CLASSIFICATION_TYPE = U
NORAD_CAT_ID   = 66429
ELEMENT_SET_NO = 999
REV_AT_EPOCH   = 570
BSTAR          = .30088E-2
MEAN_MOTION_DOT = .127249E-2
MEAN_MOTION_DDOT = 0

CCSDS_OMM_VERS = 2.0
CREATION_DATE  = 
ORIGINATOR     = 

OBJECT_NAME    = STARLINK-35470
OBJECT_ID      = 2025-259J
CENTER_NAME    = EARTH
REF_FRAME      = TEME
TIME_SYSTEM    = UTC
MEAN_ELEMENT_THEORY = SGP/SGP4

EPOCH          = 2025-12-09T04:00:01.998720
MEAN_MOTION    = 15.40619722
ECCENTRICITY   = .0001491
INCLINATION    = 43.0007
RA_OF_ASC_NODE = 68.4556
ARG_OF_PERICENTER = 249.3923
MEAN_ANOMALY   = 112.3896

EPHEMERIS_TYPE = 0
CLASSIFICATION_TYPE = U
NORAD_CAT_ID   = 66430
ELEMENT_SET_NO = 999
REV_AT_EPOCH   = 570
BSTAR          = .21592E-2
MEAN_MOTION_DOT = .9073E-3
MEAN_MOTION_DDOT = 0

CCSDS_OMM_VERS = 2.0
CREATION_DATE  = 
ORIGINATOR     = 

OBJECT_NAME    = STARLINK-35439
OBJECT_ID      = 2025-259K
CENTER_NAME    = EARTH
REF_FRAME      = TEME
TIME_SYSTEM    = UTC
MEAN_ELEMENT_THEORY = SGP/SGP4

EPOCH          = 2025-12-09T04:00:01.998720
MEAN_MOTION    = 15.40705926
ECCENTRICITY   = .0001184
INCLINATION    = 43.0006
RA_OF_ASC_NODE = 68.4246
ARG_OF_PERICENTER = 273.9081
MEAN_ANOMALY   = 100.1621

EPHEMERIS_TYPE = 0
CLASSIFICATION_TYPE = U
NORAD_CAT_ID   = 66431
ELEMENT_SET_NO = 999
REV_AT_EPOCH   = 570
BSTAR          = .23276E-2
MEAN_MOTION_DOT = .98205E-3
MEAN_MOTION_DDOT = 0

CCSDS_OMM_VERS = 2.0
CREATION_DATE  = 
ORIGINATOR     = 

OBJECT_NAME    = STARLINK-35446
OBJECT_ID      = 2025-259L
CENTER_NAME    = EARTH
REF_FRAME      = TEME
TIME_SYSTEM    = UTC
MEAN_ELEMENT_THEORY = SGP/SGP4

EPOCH          = 2025-12-09T04:00:01.998720
MEAN_MOTION    = 15.40639776
ECCENTRICITY   = .0001056
INCLINATION    = 43.0005
RA_OF_ASC_NODE = 68.3937
ARG_OF_PERICENTER = 262.0245
MEAN_ANOMALY   = 124.6089

EPHEMERIS_TYPE = 0
CLASSIFICATION_TYPE = U
NORAD_CAT_ID   = 66432
ELEMENT_SET_NO = 999
REV_AT_EPOCH   = 570
BSTAR          = .25459E-2
MEAN_MOTION_DOT = .107337E-2
MEAN_MOTION_DDOT = 0

CCSDS_OMM_VERS = 2.0
CREATION_DATE  = 
ORIGINATOR     = 

OBJECT_NAME    = STARLINK-35457
OBJECT_ID      = 2025-259M
CENTER_NAME    = EARTH
REF_FRAME      = TEME
TIME_SYSTEM    = UTC
MEAN_ELEMENT_THEORY = SGP/SGP4

EPOCH          = 2025-12-09T04:00:01.998720
MEAN_MOTION    = 15.40621385
ECCENTRICITY   = .0001315
INCLINATION    = 43.0003
RA_OF_ASC_NODE = 68.3638
ARG_OF_PERICENTER = 255.7727
MEAN_ANOMALY   = 143.3181

EPHEMERIS_TYPE = 0
CLASSIFICATION_TYPE = U
NORAD_CAT_ID   = 66433
ELEMENT_SET_NO = 999
REV_AT_EPOCH   = 570
BSTAR          = .30315E-2
MEAN_MOTION_DOT = .128141E-2
MEAN_MOTION_DDOT = 0

CCSDS_OMM_VERS = 2.0
CREATION_DATE  = 
ORIGINATOR     = 

OBJECT_NAME    = STARLINK-35389
OBJECT_ID      = 2025-259N
CENTER_NAME    = EARTH
REF_FRAME      = TEME
TIME_SYSTEM    = UTC
MEAN_ELEMENT_THEORY = SGP/SGP4

EPOCH          = 2025-12-09T04:00:01.998720
MEAN_MOTION    = 15.40636865
ECCENTRICITY   = .0000956
INCLINATION    = 43.0003
RA_OF_ASC_NODE = 68.3336
ARG_OF_PERICENTER = 264.5635
MEAN_ANOMALY   = 146.9707

EPHEMERIS_TYPE = 0
CLASSIFICATION_TYPE = U
NORAD_CAT_ID   = 66434
ELEMENT_SET_NO = 999
REV_AT_EPOCH   = 570
BSTAR          = .20798E-2
MEAN_MOTION_DOT = .87394E-3
MEAN_MOTION_DDOT = 0

CCSDS_OMM_VERS = 2.0
CREATION_DATE  = 
ORIGINATOR     = 

OBJECT_NAME    = STARLINK-35502
OBJECT_ID      = 2025-259P
CENTER_NAME    = EARTH
REF_FRAME      = TEME
TIME_SYSTEM    = UTC
MEAN_ELEMENT_THEORY = SGP/SGP4

EPOCH          = 2025-12-09T04:00:01.998720
MEAN_MOTION    = 15.40637309
ECCENTRICITY   = .0001119
INCLINATION    = 43.0002
RA_OF_ASC_NODE = 68.3044
ARG_OF_PERICENTER = 274.8727
MEAN_ANOMALY   = 149.1013

EPHEMERIS_TYPE = 0
CLASSIFICATION_TYPE = U
NORAD_CAT_ID   = 66435
ELEMENT_SET_NO = 999
REV_AT_EPOCH   = 570
BSTAR          = .25244E-2
MEAN_MOTION_DOT = .106406E-2
MEAN_MOTION_DDOT = 0

CCSDS_OMM_VERS = 2.0
CREATION_DATE  = 
ORIGINATOR     = 

OBJECT_NAME    = STARLINK-35501
OBJECT_ID      = 2025-259Q
CENTER_NAME    = EARTH
REF_FRAME      = TEME
TIME_SYSTEM    = UTC
MEAN_ELEMENT_THEORY = SGP/SGP4

EPOCH          = 2025-12-09T04:00:01.998720
MEAN_MOTION    = 15.41888587
ECCENTRICITY   = .0001485
INCLINATION    = 43.0002
RA_OF_ASC_NODE = 68.2442
ARG_OF_PERICENTER = 278.4773
MEAN_ANOMALY   = 169.7152

EPHEMERIS_TYPE = 0
CLASSIFICATION_TYPE = U
NORAD_CAT_ID   = 66436
ELEMENT_SET_NO = 999
REV_AT_EPOCH   = 570
BSTAR          = -.42118E-1
MEAN_MOTION_DOT = -.1637986E-1
MEAN_MOTION_DDOT = 0

CCSDS_OMM_VERS = 2.0
CREATION_DATE  = 
ORIGINATOR     = 

OBJECT_NAME    = STARLINK-35474
OBJECT_ID      = 2025-259R
CENTER_NAME    = EARTH
REF_FRAME      = TEME
TIME_SYSTEM    = UTC
MEAN_ELEMENT_THEORY = SGP/SGP4

EPOCH          = 2025-12-09T04:00:01.998720
MEAN_MOTION    = 15.43291257
ECCENTRICITY   = .0001728
INCLINATION    = 43.0008
RA_OF_ASC_NODE = 68.2199
ARG_OF_PERICENTER = 273.9655
MEAN_ANOMALY   = 184.5151

EPHEMERIS_TYPE = 0
CLASSIFICATION_TYPE = U
NORAD_CAT_ID   = 66437
ELEMENT_SET_NO = 999
REV_AT_EPOCH   = 570
BSTAR          = -.46291E-1
MEAN_MOTION_DOT = -.1892157E-1
MEAN_MOTION_DDOT = 0

CCSDS_OMM_VERS = 2.0
CREATION_DATE  = 
ORIGINATOR     = 

OBJECT_NAME    = STARLINK-34681
OBJECT_ID      = 2025-259S
CENTER_NAME    = EARTH
REF_FRAME      = TEME
TIME_SYSTEM    = UTC
MEAN_ELEMENT_THEORY = SGP/SGP4

EPOCH          = 2025-12-08T22:50:08.479392
MEAN_MOTION    = 15.51161578
ECCENTRICITY   = .001341
INCLINATION    = 43.0001
RA_OF_ASC_NODE = 69.4198
ARG_OF_PERICENTER = 340.5271
MEAN_ANOMALY   = 19.5076

EPHEMERIS_TYPE = 0
CLASSIFICATION_TYPE = U
NORAD_CAT_ID   = 66438
ELEMENT_SET_NO = 999
REV_AT_EPOCH   = 547
BSTAR          = .23827E-2
MEAN_MOTION_DOT = .145528E-2
MEAN_MOTION_DDOT = 0

CCSDS_OMM_VERS = 2.0
CREATION_DATE  = 
ORIGINATOR     = 

OBJECT_NAME    = STARLINK-35327
OBJECT_ID      = 2025-259T
CENTER_NAME    = EARTH
REF_FRAME      = TEME
TIME_SYSTEM    = UTC
MEAN_ELEMENT_THEORY = SGP/SGP4

EPOCH          = 2025-12-09T04:00:01.998720
MEAN_MOTION    = 15.40626064
ECCENTRICITY   = .0001054
INCLINATION    = 43.0003
RA_OF_ASC_NODE = 68.2737
ARG_OF_PERICENTER = 261.7099
MEAN_ANOMALY   = 174.7275

EPHEMERIS_TYPE = 0
CLASSIFICATION_TYPE = U
NORAD_CAT_ID   = 66439
ELEMENT_SET_NO = 999
REV_AT_EPOCH   = 570
BSTAR          = .20188E-2
MEAN_MOTION_DOT = .84759E-3
MEAN_MOTION_DDOT = 0

