STARLINK-35610          
1 66428U 25259G   25343.16668980  .00094064  00000+0  22362-2 0  9999
2 66428  43.0008  68.5176 0001714 272.5192  64.3680 15.40635007  5707
STARLINK-35533          
1 66429U 25259H   25343.16668980  .00127249  00000+0  30088-2 0  9996
2 66429  43.0007  68.4853 0001408 261.9345  87.3688 15.40640570  5704
STARLINK-35470          
1 66430U 25259J   25343.16668980  .00090730  00000+0  21592-2 0  9992
2 66430  43.0007  68.4556 0001491 249.3923 112.3896 15.40619722  5705
STARLINK-35439          
1 66431U 25259K   25343.16668980  .00098205  00000+0  23276-2 0  9999
2 66431  43.0006  68.4246 0001184 273.9081 100.1621 15.40705926  5701
STARLINK-35446          
1 66432U 25259L   25343.16668980  .00107337  00000+0  25459-2 0  9992
2 66432  43.0005  68.3937 0001056 262.0245 124.6089 15.40639776  5704
STARLINK-35457          
1 66433U 25259M   25343.16668980  .00128141  00000+0  30315-2 0  9996
2 66433  43.0003  68.3638 0001315 255.7727 143.3181 15.40621385  5701
STARLINK-35389          
1 66434U 25259N   25343.16668980  .00087394  00000+0  20798-2 0  9995
2 66434  43.0003  68.3336 0000956 264.5635 146.9707 15.40636865  5705
STARLINK-35502          
1 66435U 25259P   25343.16668980  .00106406  00000+0  25244-2 0  9993
2 66435  43.0002  68.3044 0001119 274.8727 149.1013 15.40637309  5708
STARLINK-35501          
1 66436U 25259Q   25343.16668980 -.01637986  00000+0 -42118-1 0  9997
2 66436  43.0002  68.2442 0001485 278.4773 169.7152 15.41888587  5706
STARLINK-35474          
1 66437U 25259R   25343.16668980 -.01892157  00000+0 -46291-1 0  9997
2 66437  43.0008  68.2199 0001728 273.9655 184.5151 15.43291257  5709
STARLINK-34681          
1 66438U 25259S   25342.95148703  .00145528  00000+0  23827-2 0  9991
2 66438  43.0001  69.4198 0013410 340.5271  19.5076 15.51161578  5479
STARLINK-35327          
1 66439U 25259T   25343.16668980  .00084759  00000+0  20188-2 0  9995
2 66439  43.0003  68.2737 0001054 261.7099 174.7275 15.40626064  5706
